{
    "links": {
        "self": "http://www.neowsapp.com/rest/v1/neo/3772986?api_key=iIulBulltgU6a56xZRHN4H3l9WmuAYTsLGpBGhQ2"
    },
    "id": "3772986",
    "neo_reference_id": "3772986",
    "name": "(2017 FR101)",
    "designation": "2017 FR101",
    "nasa_jpl_url": "http://ssd.jpl.nasa.gov/sbdb.cgi?sstr=3772986",
    "absolute_magnitude_h": 24.9,
    "estimated_diameter": {
        "kilometers": {
            "estimated_diameter_min": 0.0278326768,
            "estimated_diameter_max": 0.0622357573
        },
        "meters": {
            "estimated_diameter_min": 27.8326768072,
            "estimated_diameter_max": 62.2357573367
        },
        "miles": {
            "estimated_diameter_min": 0.0172944182,
            "estimated_diameter_max": 0.0386714948
        },
        "feet": {
            "estimated_diameter_min": 91.3145593761,
            "estimated_diameter_max": 204.1855621004
        }
    },
    "is_potentially_hazardous_asteroid": false,
    "close_approach_data": [
        {
            "close_approach_date": "2017-03-25",
            "close_approach_date_full": "2017-Mar-25 11:43",
            "epoch_date_close_approach": 1490442180000,
            "relative_velocity": {
                "kilometers_per_second": "8.3732396304",
                "kilometers_per_hour": "30143.6626695419",
                "miles_per_hour": "18730.0997293051"
            },
            "miss_distance": {
                "astronomical": "0.0645212205",
                "lunar": "25.0987547745",
                "kilometers": "9652237.156600335",
                "miles": "5997622.055681223"
            },
            "orbiting_body": "Earth"
        },
        {
            "close_approach_date": "2067-04-28",
            "close_approach_date_full": "2067-Apr-28 18:28",
            "epoch_date_close_approach": 3071240880000,
            "relative_velocity": {
                "kilometers_per_second": "17.9539509852",
                "kilometers_per_hour": "64634.2235466422",
                "miles_per_hour": "40161.1929587456"
            },
            "miss_distance": {
                "astronomical": "0.3921246016",
                "lunar": "152.5364700224",
                "kilometers": "58661005.173958592",
                "miles": "36450258.3941568896"
            },
            "orbiting_body": "Earth"
        },
        {
            "close_approach_date": "2077-05-02",
            "close_approach_date_full": "2077-May-02 18:16",
            "epoch_date_close_approach": 3387204960000,
            "relative_velocity": {
                "kilometers_per_second": "19.5642358425",
                "kilometers_per_hour": "70431.2490330115",
                "miles_per_hour": "43763.2391560954"
            },
            "miss_distance": {
                "astronomical": "0.4366915249",
                "lunar": "169.8730031861",
                "kilometers": "65328121.972091963",
                "miles": "40593012.6704485694"
            },
            "orbiting_body": "Earth"
        },
        {
            "close_approach_date": "2174-04-29",
            "close_approach_date_full": "2174-Apr-29 03:09",
            "epoch_date_close_approach": 6447870540000,
            "relative_velocity": {
                "kilometers_per_second": "17.3404155057",
                "kilometers_per_hour": "62425.4958205826",
                "miles_per_hour": "38788.7754447393"
            },
            "miss_distance": {
                "astronomical": "0.3790114682",
                "lunar": "147.4354611298",
                "kilometers": "56699308.348292734",
                "miles": "35231316.5097743692"
            },
            "orbiting_body": "Earth"
        },
        {
            "close_approach_date": "2184-05-06",
            "close_approach_date_full": "2184-May-06 02:51",
            "epoch_date_close_approach": 6764093460000,
            "relative_velocity": {
                "kilometers_per_second": "20.1338821703",
                "kilometers_per_hour": "72481.9758129864",
                "miles_per_hour": "45037.4810266859"
            },
            "miss_distance": {
                "astronomical": "0.4630326647",
                "lunar": "180.1197065683",
                "kilometers": "69268700.379544189",
                "miles": "43041574.5515162482"
            },
            "orbiting_body": "Earth"
        }
    ],
    "orbital_data": {
        "orbit_id": "10",
        "orbit_determination_date": "2017-05-02 06:23:13",
        "first_observation_date": "2017-03-27",
        "last_observation_date": "2017-04-25",
        "data_arc_in_days": 29,
        "observations_used": 87,
        "orbit_uncertainty": "7",
        "minimum_orbit_intersection": ".0631393",
        "jupiter_tisserand_invariant": "3.426",
        "epoch_osculation": "2459000.5",
        "eccentricity": ".5308187398121645",
        "semi_major_axis": "2.233075526301261",
        "inclination": "9.225062528817745",
        "ascending_node_longitude": "189.5158257077296",
        "orbital_period": "1218.859213851106",
        "perihelion_distance": "1.047717189524639",
        "perihelion_argument": "340.1381213736963",
        "aphelion_distance": "3.418433863077882",
        "perihelion_time": "2459043.975223212151",
        "mean_anomaly": "347.1592385908762",
        "mean_motion": ".2953581479378118",
        "equinox": "J2000",
        "orbit_class": {
            "orbit_class_type": "AMO",
            "orbit_class_description": "Near-Earth asteroid orbits similar to that of 1221 Amor",
            "orbit_class_range": "1.017 AU < q (perihelion) < 1.3 AU"
        }
    },
    "is_sentry_object": false
}